NORAD_CAT_ID,OBJECT_NAME,OBJECT_TYPE,EPOCH,MEAN_MOTION,ECCENTRICITY,INCLINATION,RA_OF_ASC_NODE,ARG_OF_PERICENTER,MEAN_ANOMALY,BSTAR,MEAN_MOTION_DOT,MEAN_MOTION_DDOT,TLE_LINE0,TLE_LINE1,TLE_LINE2,SEMIMAJOR_AXIS,PERIOD,APOGEE,PERIGEE,DECAYED
51778.0,STARLINK-3615,PAYLOAD,2024-03-21 08:36:20,15.08839363,0.0001083,53.2169,313.7047,91.8757,268.2359,7.2391e-05,8.64e-06,0.0,0 STARLINK-3615,1 51778U 22017L   24081.35857590  .00000864  00000-0  72391-4 0  9991,2 51778  53.2169 313.7047 0001083  91.8757 268.2359 15.08839363114119,6917.882,95.438,540.497,538.998,0.0
51778.0,STARLINK-3615,PAYLOAD,2024-03-21 21:19:26,15.08839934,0.0001391,53.2169,311.3272,92.494,267.6211,0.00011092,1.478e-05,0.0,0 STARLINK-3615,1 51778U 22017L   24081.88849606  .00001478  00000-0  11092-3 0  9990,2 51778  53.2169 311.3272 0001391  92.4940 267.6211 15.08839934115841,6917.881,95.438,540.708,538.783,0.0
51778.0,STARLINK-3615,PAYLOAD,2024-03-21 22:54:48,15.08845298,0.0001484,53.2177,311.0299,93.136,266.9801,9.9179e-05,1.291e-05,0.0,0 STARLINK-3615,1 51778U 22017L   24081.95473291  .00001291  00000-0  99179-4 0  9997,2 51778  53.2177 311.0299 0001484  93.1360 266.9801 15.08845298114209,6917.864,95.437,540.756,538.703,0.0
51778.0,STARLINK-3615,PAYLOAD,2024-03-22 21:10:13,15.08842332,0.0001545,53.2169,306.8667,76.007,284.1093,0.00022406,3.28e-05,0.0,0 STARLINK-3615,1 51778U 22017L   24082.88209582  .00003280  00000-0  22406-3 0  9998,2 51778  53.2169 306.8667 0001545  76.0070 284.1093 15.08842332114343,6917.873,95.437,540.807,538.669,0.0
51778.0,STARLINK-3615,PAYLOAD,2024-03-23 00:20:59,15.08843342,0.0001477,53.217,306.2712,78.3981,281.7177,0.00023687,3.484e-05,0.0,0 STARLINK-3615,1 51778U 22017L   24083.01457507  .00003484  00000-0  23687-3 0  9994,2 51778  53.2170 306.2712 0001477  78.3981 281.7177 15.08843342116014,6917.87,95.437,540.757,538.713,0.0
51778.0,STARLINK-3615,PAYLOAD,2024-03-23 21:01:00,15.08838181,0.0001555,53.2178,302.4024,100.4429,259.6738,4.745e-05,4.67e-06,0.0,0 STARLINK-3615,1 51778U 22017L   24083.87569771  .00000467  00000-0  47450-4 0  9998,2 51778  53.2178 302.4024 0001555 100.4429 259.6738 15.08838181116143,6917.886,95.438,540.827,538.675,0.0
51778.0,STARLINK-3615,PAYLOAD,2024-03-24 08:08:41,15.08847243,0.0001417,53.2174,300.3222,99.7442,260.3711,4.1527e-05,3.73e-06,0.0,0 STARLINK-3615,1 51778U 22017L   24084.33937170  .00000373  00000-0  41527-4 0  9997,2 51778  53.2174 300.3222 0001417  99.7442 260.3711 15.08847243116215,6917.858,95.437,540.704,538.743,0.0
51778.0,STARLINK-3615,PAYLOAD,2024-03-24 14:30:15,15.08840246,0.0002256,53.2172,299.1327,95.8451,264.2798,3.5543e-05,2.77e-06,0.0,0 STARLINK-3615,1 51778U 22017L   24084.60434066  .00000277  00000-0  35543-4 0  9997,2 51778  53.2172 299.1327 0002256  95.8451 264.2798 15.08840246114608,6917.88,95.438,541.305,538.184,0.0
51778.0,STARLINK-3615,PAYLOAD,2024-03-24 20:51:48,15.08837464,0.0001607,53.2183,297.9477,86.8253,273.2923,-9.1575e-06,-4.34e-06,0.0,0 STARLINK-3615,1 51778U 22017L   24084.86930636 -.00000434  00000-0 -91575-5 0  9994,2 51778  53.2183 297.9477 0001607  86.8253 273.2923 15.08837464116296,6917.888,95.438,540.865,538.641,0.0
51778.0,STARLINK-3615,PAYLOAD,2024-03-25 20:42:34,15.08847658,0.0001523,53.216,293.4847,88.9613,271.1554,0.00031426,4.718e-05,0.0,0 STARLINK-3615,1 51778U 22017L   24085.86290309  .00004718  00000-0  31426-3 0  9995,2 51778  53.2160 293.4847 0001523  88.9613 271.1554 15.08847658114799,6917.857,95.437,540.776,538.668,0.0
51778.0,STARLINK-3615,PAYLOAD,2024-03-26 06:14:53,15.08860891,0.0001368,53.2158,291.6987,82.6768,277.4379,0.00058023,8.964e-05,0.0,0 STARLINK-3615,1 51778U 22017L   24086.26033744  .00008964  00000-0  58023-3 0  9997,2 51778  53.2158 291.6987 0001368  82.6768 277.4379 15.08860891116509,6917.817,95.436,540.628,538.735,0.0
51778.0,STARLINK-3615,PAYLOAD,2024-03-26 20:33:22,15.08832974,0.0001352,53.2163,289.0259,76.7527,283.3616,-8.6864e-05,-1.67e-05,0.0,0 STARLINK-3615,1 51778U 22017L   24086.85650763 -.00001670  00000-0 -86864-4 0  9992,2 51778  53.2163 289.0259 0001352  76.7527 283.3616 15.08832974116598,6917.902,95.438,540.702,538.832,0.0
51778.0,STARLINK-3615,PAYLOAD,2024-03-27 06:05:40,15.08843939,0.0001357,53.2153,287.2385,66.9434,293.1701,0.00016082,2.273e-05,0.0,0 STARLINK-3615,1 51778U 22017L   24087.25394517  .00002273  00000-0  16082-3 0  9991,2 51778  53.2153 287.2385 0001357  66.9434 293.1701 15.08843939116654,6917.868,95.437,540.672,538.795,0.0
51778.0,STARLINK-3615,PAYLOAD,2024-03-27 20:24:09,15.08842452,0.0001371,53.2157,284.5623,58.7368,301.3759,0.00011327,1.515e-05,0.0,0 STARLINK-3615,1 51778U 22017L   24087.85010643  .00001515  00000-0  11327-3 0  9997,2 51778  53.2157 284.5623 0001371  58.7368 301.3759 15.08842452115095,6917.873,95.437,540.686,538.789,0.0
51778.0,STARLINK-3615,PAYLOAD,2024-03-28 12:18:01,15.0883672,0.0001672,53.2145,281.5888,73.432,286.6856,0.00022094,3.23e-05,0.0,0 STARLINK-3615,1 51778U 22017L   24088.51251232  .00003230  00000-0  22094-3 0  9991,2 51778  53.2145 281.5888 0001672  73.4320 286.6856 15.08836720116846,6917.89,95.438,540.912,538.599,0.0
51778.0,STARLINK-3615,PAYLOAD,2024-03-28 21:50:19,15.08841234,0.0001815,53.216,279.8049,75.8429,284.2765,0.00016545,2.346e-05,0.0,0 STARLINK-3615,1 51778U 22017L   24088.90995100  .00002346  00000-0  16545-3 0  9994,2 51778  53.2160 279.8049 0001815  75.8429 284.2765 15.08841234115250,6917.877,95.437,540.997,538.486,0.0
51778.0,STARLINK-3615,PAYLOAD,2024-03-29 18:30:20,15.08849359,0.0001789,53.2168,275.9405,79.2856,280.8337,0.0003043,4.559e-05,0.0,0 STARLINK-3615,1 51778U 22017L   24089.77106875  .00004559  00000-0  30430-3 0  9990,2 51778  53.2168 275.9405 0001789  79.2856 280.8337 15.08849359117034,6917.852,95.437,540.954,538.479,0.0
51778.0,STARLINK-3615,PAYLOAD,2024-03-29 21:41:06,15.08844293,0.0001479,53.2166,275.3478,83.8416,276.2745,0.00014793,2.067e-05,0.0,0 STARLINK-3615,1 51778U 22017L   24089.90354945  .00002067  00000-0  14793-3 0  9994,2 51778  53.2166 275.3478 0001479  83.8416 276.2745 15.08844293115408,6917.867,95.437,540.755,538.709,0.0
51778.0,STARLINK-3615,PAYLOAD,2024-03-30 05:38:02,15.08848362,0.0001389,53.2157,273.8602,81.3867,278.7282,0.00023906,3.52e-05,0.0,0 STARLINK-3615,1 51778U 22017L   24090.23474717  .00003520  00000-0  23906-3 0  9993,2 51778  53.2157 273.8602 0001389  81.3867 278.7282 15.08848362115452,6917.855,95.437,540.681,538.759,0.0
51778.0,STARLINK-3615,PAYLOAD,2024-03-30 18:21:07,15.08845636,0.0002213,53.2113,271.479,87.4496,272.675,0.00019133,2.759e-05,0.0,0 STARLINK-3615,1 51778U 22017L   24090.76466986  .00002759  00000-0  19133-3 0  9990,2 51778  53.2113 271.4790 0002213  87.4496 272.6750 15.08845636117184,6917.863,95.437,541.259,538.197,0.0
51778.0,STARLINK-3615,PAYLOAD,2024-03-30 21:31:54,15.088381,0.0001271,53.2135,270.8856,86.8918,273.222,7.7658e-05,9.48e-06,0.0,0 STARLINK-3615,1 51778U 22017L   24090.89715427  .00000948  00000-0  77658-4 0  9996,2 51778  53.2135 270.8856 0001271  86.8918 273.2220 15.08838100115555,6917.886,95.438,540.63,538.872,0.0
51778.0,STARLINK-3615,PAYLOAD,2024-03-31 05:28:49,15.0884103,0.0001227,53.2154,269.3977,92.5854,267.5278,0.00013501,1.862e-05,0.0,0 STARLINK-3615,1 51778U 22017L   24091.22835344  .00001862  00000-0  13501-3 0  9997,2 51778  53.2154 269.3977 0001227  92.5854 267.5278 15.08841030117251,6917.877,95.437,540.591,538.893,0.0
51778.0,STARLINK-3615,PAYLOAD,2024-03-31 11:50:21,15.08849149,8.64e-05,53.2164,268.2072,101.0408,259.0681,-9.8301e-05,-1.852e-05,0.0,0 STARLINK-3615,1 51778U 22017L   24091.49330936 -.00001852  00000-0 -98301-4 0  9996,2 51778  53.2164 268.2072 0000864 101.0408 259.0681 15.08849149115647,6917.852,95.437,540.315,539.12,0.0
51778.0,STARLINK-3615,PAYLOAD,2024-03-31 18:11:54,15.08852341,0.0001448,53.2126,267.0181,95.5303,264.5855,0.00025083,3.708e-05,0.0,0 STARLINK-3615,1 51778U 22017L   24091.75826671  .00003708  00000-0  25083-3 0  9997,2 51778  53.2126 267.0181 0001448  95.5303 264.5855 15.08852341117333,6917.843,95.437,540.709,538.706,0.0
51778.0,STARLINK-3615,PAYLOAD,2024-04-01 11:41:09,15.08842962,0.0001128,53.2141,263.7494,88.3025,271.8096,0.00024913,3.68e-05,0.0,0 STARLINK-3615,1 51778U 22017L   24092.48691056  .00003680  00000-0  24913-3 0  9995,2 51778  53.2141 263.7494 0001128  88.3025 271.8096 15.08842962117444,6917.871,95.437,540.517,538.956,0.0
51778.0,STARLINK-3615,PAYLOAD,2024-04-01 18:02:41,15.08833897,0.0001071,53.2172,262.5584,84.3181,275.7934,0.0001053,1.388e-05,0.0,0 STARLINK-3615,1 51778U 22017L   24092.75187455  .00001388  00000-0  10530-3 0  9991,2 51778  53.2172 262.5584 0001071  84.3181 275.7934 15.08833897117486,6917.899,95.438,540.505,539.023,0.0
51778.0,STARLINK-3615,PAYLOAD,2024-04-02 03:35:00,15.08842968,0.0001083,53.2167,260.7746,82.3553,277.7562,0.00016151,2.284e-05,0.0,0 STARLINK-3615,1 51778U 22017L   24093.14930886  .00002284  00000-0  16151-3 0  9990,2 51778  53.2167 260.7746 0001083  82.3553 277.7562 15.08842968117549,6917.871,95.437,540.486,538.987,0.0
51778.0,STARLINK-3615,PAYLOAD,2024-04-02 11:31:56,15.08840571,0.0001708,53.2151,259.2885,84.3603,275.7584,-1.5362e-06,-3.13e-06,0.0,0 STARLINK-3615,1 51778U 22017L   24093.48051305 -.00000313  00000-0 -15362-5 0  9995,2 51778  53.2151 259.2885 0001708  84.3603 275.7584 15.08840571115943,6917.879,95.438,540.925,538.562,0.0
51778.0,STARLINK-3615,PAYLOAD,2024-04-02 17:53:29,15.08837855,0.0001214,53.2159,258.0991,88.5005,271.6127,-3.2094e-06,-3.39e-06,0.0,0 STARLINK-3615,1 51778U 22017L   24093.74547639 -.00000339  00000-0 -32094-5 0  9993,2 51778  53.2159 258.0991 0001214  88.5005 271.6127 15.08837855117637,6917.887,95.438,540.592,538.912,0.0
51778.0,STARLINK-3615,PAYLOAD,2024-04-03 11:22:43,15.08835874,0.0001278,53.2187,254.8305,87.4789,272.6349,0.00014005,1.941e-05,0.0,0 STARLINK-3615,1 51778U 22017L   24094.47411528  .00001941  00000-0  14005-3 0  9999,2 51778  53.2187 254.8305 0001278  87.4789 272.6349 15.08835874116093,6917.893,95.438,540.642,538.874,0.0
